#dP2024 12 20 12  0  0.00000000      96 __u+U IGS20 EXT  IAC
## 2345 475200.00000000   900.00000000 60664 0.5000000000000
+   52   G02G03G04G05G06G07G08G09G10G11G12G13G14G15G16G17G18
+        G19G20G21G22G23G24G25G26G27G28G29G30G31G32R01R02R03
+        R04R05R07R08R09R11R12R14R15R16R17R18R19R20R21R22R24
+        R26  0  0  0  0  0  0  0  0  0  0  0  0  0  0  0  0
+          0  0  0  0  0  0  0  0  0  0  0  0  0  0  0  0  0
++         7  7  7  8  7  6  7  7  7  7  7  7  8  6  8  8  7
++         8  8  7  8  7  8  7  7  6  7  8  7  6  7  9  7  7
++         8  9  7  7  7  8  8  9  7  8  8  8  9 10  7  8  7
++         9  0  0  0  0  0  0  0  0  0  0  0  0  0  0  0  0
++         0  0  0  0  0  0  0  0  0  0  0  0  0  0  0  0  0
%c M  cc GPS ccc cccc cccc cccc cccc ccccc ccccc ccccc ccccc
%c cc cc ccc ccc cccc cccc cccc cccc ccccc ccccc ccccc ccccc
%f  0.0000000  0.000000000  0.00000000000  0.000000000000000
%f  0.0000000  0.000000000  0.00000000000  0.000000000000000
%i    0    0    0    0      0      0      0      0         0
%i    0    0    0    0      0      0      0      0         0
/* IAC                                ULTRA-RAPID PREDICTION
/* S/V CLOCKS ARE ALIGNED TO GNSS TIME                      
/* G:C1WC2W R:C1PC2P E:C1XC5X C:C2IC6I J:C1CC2S             
/* PCV:IGS20_2317 OL/AL:FES2004  NONE     YN ORB:CoN CLK:CoN
*  2024 12 21  9  0  0.00000000
PG02 -14219.096478  22180.046986    872.231152   -286.957670
PG03 -10560.057254  12686.186349 -20944.653521    629.402141
PG04  -3281.428271  21070.503092 -15719.441848    499.335350
PG05  23489.169808  -5902.760608  10803.406825   -196.652887
PG06  13890.848888   5517.955071 -21894.978286    -60.316131
PG07  -2203.055992  21667.681785  15423.433181    -14.939228
PG08 -11129.493411  11463.788043  21023.528474    443.449376
PG09   4740.902308  24584.098959  -8851.193610    496.114555
PG10 -21451.446461 -10527.955912  12181.538477   -243.240545
PG11  19859.707325  -6775.531170 -16205.160143   -752.719445
PG12  14700.398835 -11119.255673 -19396.144923   -559.678726
PG13  14797.906062  -2047.418878  21738.513087    690.742910
PG14  18283.926885  12961.319575  14479.096274    564.457766
PG15   9166.311415 -13454.499042  20442.096887    242.152066
PG16 -25937.132671   -611.678462   6349.479851    -97.857572
PG17  13034.149148  21906.435935  -6660.193605    509.916796
PG18   1024.548813 -20343.151217  16953.931170   -659.983075
PG19  16107.621639  14578.933050 -15707.633427    576.463809
PG20  26434.315052  -1029.546619  -1203.908361    367.716592
PG21 -16899.447137  18536.353781   7144.000463     97.391638
PG22  22972.845930  10445.154223   8140.776692    -87.700930
PG23  -8441.105083 -14538.640065  20662.598748    387.879203
PG24  14410.765516 -21936.046981   1758.771935   -471.646947
PG25   -166.744510 -15691.685230 -21796.793820    497.845812
PG26 -25914.935099  -4462.923250  -5191.596801    -16.942069
PG27 -16333.418914   -888.313243  20704.347416    -33.980971
PG28 -13208.581477  -7620.285741 -21762.779425   -514.152489
PG29  -2700.945409 -24998.027116  -8409.295954   -554.114876
PG30   8320.907305  14532.893949  20716.687054   -256.686881
PG31 -18766.142472   2260.027302 -19046.807505   -219.551089
PG32 -16031.353872 -18737.246552  -9910.042211   -555.521007
PR01 -19548.356839 -15485.626626  -5342.657653    108.513315
PR02 -16075.854423  -3891.968698 -19401.740269    -39.011025
PR03  -3890.358440  11114.979231 -22572.078429    113.641956
PR04   9881.127836  19343.116554 -13328.328132    269.367508
PR05  18349.203631  17435.384234   3045.970728    142.502648
PR07   3534.169875 -11475.797910  22553.103580     97.345572
PR08 -10181.502800 -19383.536142  13183.987073     -6.137364
PR09  24731.666442  -6058.426832   2153.814588    227.470207
PR11   2159.882966 -11663.545781 -22578.490014      3.823700
PR12 -17679.910324  -4305.707098 -17865.367052     48.666870
PR14 -17460.416467  11871.284755  14304.260883     27.459016
PR15   -196.066450  11403.855959  22827.143013     72.972799
PR16  17545.610473   4233.172793  18043.143284     31.794619
PR17 -10004.585274  22313.647069   7346.576381    150.413364
PR18  -2911.961623  23635.414791  -9052.279792    177.908875
PR19   4458.481553  14968.714731 -20161.340993   -302.682913
PR20  12405.486311  -6951.862254 -21170.902442   -123.536380
PR21  10523.873349 -21629.856720  -8441.990261   -161.368099
PR22   2535.956988 -23259.871633  10205.153146    -48.961346
PR24 -12527.097126   7895.474359  20798.537535    -84.938397
PR26  -8905.112191 -18875.100270  14674.255094   -132.559610
*  2024 12 21  9 15  0.00000000
PG02 -14343.997424  21861.499556   3745.877114   -286.949639
PG03 -12839.726122  12424.059935 -19777.316280    629.409845
PG04  -4196.256293  19383.653656 -17575.011133    499.340855
PG05  24590.258961  -5676.880517   8210.243734   -196.653834
PG06  12436.332164   7584.639952 -22138.323380    -60.341572
PG07  -3283.157562  22842.489984  13275.575512    -14.938202
PG08 -12334.336173   9312.012376  21448.508334    443.457258
PG09   4013.288030  23666.871645 -11381.838914    496.128889
PG10 -19970.651701 -10526.094474  14493.652422   -243.254574
PG11  18800.194327  -5114.422825 -17982.008198   -752.719480
PG12  16741.713221 -10690.746665 -17898.432442   -559.680761
PG13  15527.524998    353.966764  21344.794307    690.744167
PG14  16516.416875  12984.676430  16433.921389    564.464584
PG15  10639.006191 -11449.309574  20944.642932    242.156183
PG16 -26495.694207   -926.484943   3595.503061    -97.849014
PG17  13045.750424  22606.926730  -3867.700517    509.902112
PG18   2214.912818 -21738.184896  14970.640405   -659.982472
PG19  16517.883827  16172.569689 -13596.382875    576.468374
PG20  26154.068641   -722.210776  -4038.368545    367.716322
PG21 -16706.807911  17552.555864   9830.677753     97.393640
PG22  21906.912585  10516.692874  10729.289927    -87.703072
PG23  -6047.370676 -14465.927014  21516.399458    387.886122
PG24  14530.547074 -21395.403019   4551.667911   -471.643964
PG25   2249.156376 -15542.763102 -21764.106442    497.845397
PG26 -25198.369744  -4764.593593  -7830.149234    -16.954958
PG27 -17310.741955  -3044.635100  19735.117696    -33.980634
PG28 -11866.290000  -9709.772730 -21703.690496   -514.161927
PG29  -2096.448979 -24046.016215 -10988.108103   -554.111985
PG30   6931.065594  16372.881468  19805.627878   -256.679518
PG31 -17567.166445    420.902906 -20263.691404   -219.550416
PG32 -16281.864954 -19736.205396  -7292.717500   -555.515363
PR01 -19992.501895 -15686.780723  -2170.747513    108.514476
PR02 -17776.385047  -5418.921455 -17465.536506    -39.010874
PR03  -5908.870044   9135.914657 -23021.769854    113.642505
PR04   8695.463012  17972.471314 -15834.069374    269.368959
PR05  18603.152685  17429.273379   -179.677444    142.503119
PR07   5528.669683  -9503.443625  23060.144941     97.346217
PR08  -9004.400598 -18053.651898  15696.670300     -6.137438
PR09  24268.691896  -6007.069447   5289.965447    227.472117
PR11   4769.077805 -12483.228105 -21725.332504      3.822171
PR12 -15431.413060  -4884.946243 -19702.490094     48.667242
PR14 -18966.191404  12426.116258  11671.288722     27.459026
PR15  -2854.169471  12205.563265  22226.311254     72.972401
PR16  15278.930890   4811.835450  19865.102772     31.794881
PR17  -9565.874227  21302.472840  10329.089481    150.416336
PR18  -2974.367965  24585.324539  -5987.666370    177.910583
PR19   3881.891619  17282.355825 -18349.805754   -302.684156
PR20  11544.501959  -4402.561189 -22306.826877   -123.536919
PR21  10038.397289 -20490.714842 -11367.913926   -161.371025
PR22   2706.618588 -24326.166481   7234.787215    -48.972985
PR24 -11827.058085   5355.714080  21983.613375    -84.939812
PR26  -7579.060091 -17435.530284  17017.521455   -132.559293
EOF
